{"type": "FeatureCollection", "features": [ {"type": "Feature", "properties": {"norad_id": 38755, "name": "SPOT 6", "group": "resource", "lat": -25.36754184595063, "lon": 45.249496271105116, "alt_km": 703.7742979126706, "timestamp": "2025-12-02T08:59:32.376508+00:00", "meta": {"OBJECT_NAME": "SPOT 6", "OBJECT_ID": "2012-047A", "EPOCH": "2025-12-02T04:10:13.582848", "MEAN_MOTION": 14.58586441, "ECCENTRICITY": 0.0001029, "INCLINATION": 98.1586, "RA_OF_ASC_NODE": 41.152, "ARG_OF_PERICENTER": 99.641, "MEAN_ANOMALY": 260.4905, "EPHEMERIS_TYPE": 0, "CLASSIFICATION_TYPE": "U", "NORAD_CAT_ID": 38755, "ELEMENT_SET_NO": 999, "REV_AT_EPOCH": 70433, "BSTAR": 0.00011388, "MEAN_MOTION_DOT": 4.84e-06, "MEAN_MOTION_DDOT": 0}, "tle": {"line1": "1 38755U 12047A   25336.17376832  .00000484  00000+0  11388-3 0  9997", "line2": "2 38755  98.1586  41.1520 0001029  99.6410 260.4905 14.58586441704330"}}, "geometry": {"type": "Point", "coordinates": [45.249496271105116, -25.36754184595063]}}, {"type": "Feature", "properties": {"norad_id": 39019, "name": "PLEIADES 1B", "group": "resource", "lat": -54.15875255716398, "lon": -142.29784169185157, "alt_km": 705.6655366761461, "timestamp": "2025-12-02T08:59:32.376518+00:00", "meta": {"OBJECT_NAME": "PLEIADES 1B", "OBJECT_ID": "2012-068A", "EPOCH": "2025-12-02T04:37:32.507904", "MEAN_MOTION": 14.58535662, "ECCENTRICITY": 0.000126, "INCLINATION": 98.1806, "RA_OF_ASC_NODE": 49.0105, "ARG_OF_PERICENTER": 88.1156, "MEAN_ANOMALY": 272.0188, "EPHEMERIS_TYPE": 0, "CLASSIFICATION_TYPE": "U", "NORAD_CAT_ID": 39019, "ELEMENT_SET_NO": 999, "REV_AT_EPOCH": 69213, "BSTAR": 0.00011617, "MEAN_MOTION_DOT": 4.94e-06, "MEAN_MOTION_DDOT": 0}, "tle": {"line1": "1 39019U 12068A   25336.19273736  .00000494  00000+0  11617-3 0  9991", "line2": "2 39019  98.1806  49.0105 0001260  88.1156 272.0188 14.58535662692137"}}, "geometry": {"type": "Point", "coordinates": [-142.29784169185157, -54.15875255716398]}}, {"type": "Feature", "properties": {"norad_id": 39030, "name": "GOKTURK 2", "group": "resource", "lat": -7.163310263930903, "lon": -2.435529143052703, "alt_km": 648.2631900059532, "timestamp": "2025-12-02T08:59:32.376529+00:00", "meta": {"OBJECT_NAME": "GOKTURK 2", "OBJECT_ID": "2012-073A", "EPOCH": "2025-12-02T03:15:48.456864", "MEAN_MOTION": 14.75266602, "ECCENTRICITY": 7.92e-05, "INCLINATION": 97.69, "RA_OF_ASC_NODE": 178.3106, "ARG_OF_PERICENTER": 92.3249, "MEAN_ANOMALY": 267.8051, "EPHEMERIS_TYPE": 0, "CLASSIFICATION_TYPE": "U", "NORAD_CAT_ID": 39030, "ELEMENT_SET_NO": 999, "REV_AT_EPOCH": 69545, "BSTAR": 0.00012326, "MEAN_MOTION_DOT": 7.87e-06, "MEAN_MOTION_DDOT": 0}, "tle": {"line1": "1 39030U 12073A   25336.13597751  .00000787  00000+0  12326-3 0  9993", "line2": "2 39030  97.6900 178.3106 0000792  92.3249 267.8051 14.75266602695458"}}, "geometry": {"type": "Point", "coordinates": [-2.435529143052703, -7.163310263930903]}}, {"type": "Feature", "properties": {"norad_id": 39084, "name": "LANDSAT 8", "group": "resource", "lat": 78.26944030867912, "lon": -91.35897278416331, "alt_km": 694.4077634281002, "timestamp": "2025-12-02T08:59:32.376539+00:00", "meta": {"OBJECT_NAME": "LANDSAT 8", "OBJECT_ID": "2013-008A", "EPOCH": "2025-12-02T03:35:54.096288", "MEAN_MOTION": 14.57122923, "ECCENTRICITY": 0.0001077, "INCLINATION": 98.2085, "RA_OF_ASC_NODE": 44.3791, "ARG_OF_PERICENTER": 88.3158, "MEAN_ANOMALY": 271.8164, "EPHEMERIS_TYPE": 0, "CLASSIFICATION_TYPE": "U", "NORAD_CAT_ID": 39084, "ELEMENT_SET_NO": 999, "REV_AT_EPOCH": 66920, "BSTAR": 0.00012533, "MEAN_MOTION_DOT": 5.2e-06, "MEAN_MOTION_DDOT": 0}, "tle": {"line1": "1 39084U 13008A   25336.14993167  .00000520  00000+0  12533-3 0  9998", "line2": "2 39084  98.2085  44.3791 0001077  88.3158 271.8164 14.57122923669202"}}, "geometry": {"type": "Point", "coordinates": [-91.35897278416331, 78.26944030867912]}}, {"type": "Feature", "properties": {"norad_id": 39086, "name": "SARAL", "group": "resource", "lat": -81.3365958287007, "lon": -118.6538554967583, "alt_km": 791.3636116950502, "timestamp": "2025-12-02T08:59:32.376550+00:00", "meta": {"OBJECT_NAME": "SARAL", "OBJECT_ID": "2013-009A", "EPOCH": "2025-12-02T04:22:39.142272", "MEAN_MOTION": 14.32750887, "ECCENTRICITY": 0.0002585, "INCLINATION": 98.5507, "RA_OF_ASC_NODE": 160.2504, "ARG_OF_PERICENTER": 128.967, "MEAN_ANOMALY": 231.1745, "EPHEMERIS_TYPE": 0, "CLASSIFICATION_TYPE": "U", "NORAD_CAT_ID": 39086, "ELEMENT_SET_NO": 999, "REV_AT_EPOCH": 66739, "BSTAR": 8.2565e-05, "MEAN_MOTION_DOT": 1.81e-06, "MEAN_MOTION_DDOT": 0}, "tle": {"line1": "1 39086U 13009A   25336.18239748  .00000181  00000+0  82565-4 0  9999", "line2": "2 39086  98.5507 160.2504 0002585 128.9670 231.1745 14.32750887667392"}}, "geometry": {"type": "Point", "coordinates": [-118.6538554967583, -81.3365958287007]}}, {"type": "Feature", "properties": {"norad_id": 39150, "name": "GAOFEN-1", "group": "resource", "lat": -38.51577768808848, "lon": -139.15587112250248, "alt_km": 637.8558260742775, "timestamp": "2025-12-02T08:59:32.376560+00:00", "meta": {"OBJECT_NAME": "GAOFEN-1", "OBJECT_ID": "2013-018A", "EPOCH": "2025-12-02T04:45:06.759360", "MEAN_MOTION": 14.76502614, "ECCENTRICITY": 0.001756, "INCLINATION": 97.9339, "RA_OF_ASC_NODE": 47.0431, "ARG_OF_PERICENTER": 176.1838, "MEAN_ANOMALY": 183.9509, "EPHEMERIS_TYPE": 0, "CLASSIFICATION_TYPE": "U", "NORAD_CAT_ID": 39150, "ELEMENT_SET_NO": 999, "REV_AT_EPOCH": 67917, "BSTAR": 0.00014963, "MEAN_MOTION_DOT": 9.94e-06, "MEAN_MOTION_DDOT": 0}, "tle": {"line1": "1 39150U 13018A   25336.19799490  .00000994  00000+0  14963-3 0  9995", "line2": "2 39150  97.9339  47.0431 0017560 176.1838 183.9509 14.76502614679173"}}, "geometry": {"type": "Point", "coordinates": [-139.15587112250248, -38.51577768808848]}}, {"type": "Feature", "properties": {"norad_id": 39160, "name": "VNREDSAT 1", "group": "resource", "lat": -6.288444847344309, "lon": 32.89338419914766, "alt_km": 681.1828467598752, "timestamp": "2025-12-02T08:59:32.376570+00:00", "meta": {"OBJECT_NAME": "VNREDSAT 1", "OBJECT_ID": "2013-021B", "EPOCH": "2025-12-02T04:06:11.746656", "MEAN_MOTION": 14.64896095, "ECCENTRICITY": 0.0001378, "INCLINATION": 97.9388, "RA_OF_ASC_NODE": 31.8157, "ARG_OF_PERICENTER": 84.0227, "MEAN_ANOMALY": 276.1134, "EPHEMERIS_TYPE": 0, "CLASSIFICATION_TYPE": "U", "NORAD_CAT_ID": 39160, "ELEMENT_SET_NO": 999, "REV_AT_EPOCH": 67144, "BSTAR": 0.00017255, "MEAN_MOTION_DOT": 8.77e-06, "MEAN_MOTION_DDOT": 0}, "tle": {"line1": "1 39160U 13021B   25336.17096929  .00000877  00000+0  17255-3 0  9992", "line2": "2 39160  97.9388  31.8157 0001378  84.0227 276.1134 14.64896095671440"}}, "geometry": {"type": "Point", "coordinates": [32.89338419914766, -6.288444847344309]}}, {"type": "Feature", "properties": {"norad_id": 39227, "name": "ARIRANG-5 (KOMPSAT-5)", "group": "resource", "lat": 36.5518369058934, "lon": 155.13339244746194, "alt_km": 548.4514475378264, "timestamp": "2025-12-02T08:59:32.376581+00:00", "meta": {"OBJECT_NAME": "ARIRANG-5 (KOMPSAT-5)", "OBJECT_ID": "2013-042A", "EPOCH": "2025-12-02T04:02:24.418752", "MEAN_MOTION": 15.04496383, "ECCENTRICITY": 0.0004372, "INCLINATION": 97.6161, "RA_OF_ASC_NODE": 160.6231, "ARG_OF_PERICENTER": 84.3904, "MEAN_ANOMALY": 275.7821, "EPHEMERIS_TYPE": 0, "CLASSIFICATION_TYPE": "U", "NORAD_CAT_ID": 39227, "ELEMENT_SET_NO": 999, "REV_AT_EPOCH": 67423, "BSTAR": 0.00015795, "MEAN_MOTION_DOT": 2.15e-05, "MEAN_MOTION_DDOT": 0}, "tle": {"line1": "1 39227U 13042A   25336.16833818  .00002150  00000+0  15795-3 0  9997", "line2": "2 39227  97.6161 160.6231 0004372  84.3904 275.7821 15.04496383674235"}}, "geometry": {"type": "Point", "coordinates": [155.13339244746194, 36.5518369058934]}}, {"type": "Feature", "properties": {"norad_id": 39418, "name": "SKYSAT-A", "group": "resource", "lat": 31.661728383623714, "lon": -148.49612085965995, "alt_km": 538.4796524681815, "timestamp": "2025-12-02T08:59:32.376591+00:00", "meta": {"OBJECT_NAME": "SKYSAT-A", "OBJECT_ID": "2013-066C", "EPOCH": "2025-12-02T01:58:57.537696", "MEAN_MOTION": 15.11477798, "ECCENTRICITY": 0.002051, "INCLINATION": 97.413, "RA_OF_ASC_NODE": 26.6153, "ARG_OF_PERICENTER": 275.99, "MEAN_ANOMALY": 83.8993, "EPHEMERIS_TYPE": 0, "CLASSIFICATION_TYPE": "U", "NORAD_CAT_ID": 39418, "ELEMENT_SET_NO": 999, "REV_AT_EPOCH": 65869, "BSTAR": 0.00027855, "MEAN_MOTION_DOT": 4.673e-05, "MEAN_MOTION_DDOT": 0}, "tle": {"line1": "1 39418U 13066C   25336.08261039  .00004673  00000+0  27855-3 0  9998", "line2": "2 39418  97.4130  26.6153 0020510 275.9900  83.8993 15.11477798658698"}}, "geometry": {"type": "Point", "coordinates": [-148.49612085965995, 31.661728383623714]}}, {"type": "Feature", "properties": {"norad_id": 39419, "name": "DUBAISAT-2", "group": "resource", "lat": 51.25984182974198, "lon": -42.27574319435657, "alt_km": 532.0726004853386, "timestamp": "2025-12-02T08:59:32.376602+00:00", "meta": {"OBJECT_NAME": "DUBAISAT-2", "OBJECT_ID": "2013-066D", "EPOCH": "2025-12-02T05:34:44.308992", "MEAN_MOTION": 15.08195529, "ECCENTRICITY": 0.0011635, "INCLINATION": 97.4444, "RA_OF_ASC_NODE": 326.9661, "ARG_OF_PERICENTER": 0.228, "MEAN_ANOMALY": 359.8951, "EPHEMERIS_TYPE": 0, "CLASSIFICATION_TYPE": "U", "NORAD_CAT_ID": 39419, "ELEMENT_SET_NO": 999, "REV_AT_EPOCH": 65668, "BSTAR": 0.00038693, "MEAN_MOTION_DOT": 5.933e-05, "MEAN_MOTION_DDOT": 0}, "tle": {"line1": "1 39419U 13066D   25336.23245728  .00005933  00000+0  38693-3 0  9995", "line2": "2 39419  97.4444 326.9661 0011635   0.2280 359.8951 15.08195529656687"}}, "geometry": {"type": "Point", "coordinates": [-42.27574319435657, 51.25984182974198]}}]}